[
    {
        "CCSDS_OMM_VERS": "3.0",
        "COMMENT": "GENERATED VIA SPACE-TRACK.ORG API",
        "CREATION_DATE": "2025-03-02T09:28:08",
        "ORIGINATOR": "18 SPCS",
        "OBJECT_NAME": "NAVSTAR 67 (USA 239)",
        "OBJECT_ID": "2012-053A",
        "CENTER_NAME": "EARTH",
        "REF_FRAME": "TEME",
        "TIME_SYSTEM": "UTC",
        "MEAN_ELEMENT_THEORY": "SGP4",
        "EPOCH": "2025-03-01T16:02:21.425856",
        "MEAN_MOTION": "2.00561545",
        "ECCENTRICITY": "0.01631600",
        "INCLINATION": "53.5283",
        "RA_OF_ASC_NODE": "162.9446",
        "ARG_OF_PERICENTER": "59.8462",
        "MEAN_ANOMALY": "301.7739",
        "EPHEMERIS_TYPE": "0",
        "CLASSIFICATION_TYPE": "U",
        "NORAD_CAT_ID": "38833",
        "ELEMENT_SET_NO": "999",
        "REV_AT_EPOCH": "8996",
        "BSTAR": "0.00000000000000",
        "MEAN_MOTION_DOT": "0.00000028",
        "MEAN_MOTION_DDOT": "0.0000000000000",
        "SEMIMAJOR_AXIS": "26560.530",
        "PERIOD": "717.984",
        "APOAPSIS": "20615.756",
        "PERIAPSIS": "19749.033",
        "OBJECT_TYPE": "PAYLOAD",
        "RCS_SIZE": "LARGE",
        "COUNTRY_CODE": "US",
        "LAUNCH_DATE": "2012-10-04",
        "SITE": "AFETR",
        "DECAY_DATE": null,
        "FILE": "4656805",
        "GP_ID": "282046123",
        "TLE_LINE0": "0 NAVSTAR 67 (USA 239)",
        "TLE_LINE1": "1 38833U 12053A   25060.66830354  .00000028  00000-0  00000-0 0  9994",
        "TLE_LINE2": "2 38833  53.5283 162.9446 0163160  59.8462 301.7739  2.00561545 89966"
    }
]